start=new Date('2023-06-20T00:00:00.000Z').valueOf();
sats=[{"MEAN_MOTION":"15.08856517","SEMIMAJOR_AXIS":"6917.830","REF_FRAME":"TEME","RCS_SIZE":"LARGE","NORAD_CAT_ID":"53936","OBJECT_TYPE":"PAYLOAD","MEAN_ANOMALY":"278.1124","APOAPSIS":"540.560","TLE_LINE2":"2 53936  53.2167  83.3343 0001251  82.0010 278.1124 15.08856517 41912","CENTER_NAME":"EARTH","ECCENTRICITY":"0.00012510","LAUNCH_DATE":"2022-09-24","TLE_LINE1":"1 53936U 22119BC  23170.19173208  .00001613  00000-0  11933-3 0  9996","SITE":"AFETR","OBJECT_ID":"2022-119BC","MEAN_MOTION_DOT":"0.00001613","EPOCH":"2023-06-19T04:36:05.651712","FILE":"3937338","REV_AT_EPOCH":"4191","ELEMENT_SET_NO":"999","INCLINATION":"53.2167","GP_ID":"234288675","TIME_SYSTEM":"UTC","OBJECT_NAME":"STARLINK-4791","EPHEMERIS_TYPE":"0","BSTAR":"0.00011933000000","PERIOD":"95.437","CLASSIFICATION_TYPE":"U","RA_OF_ASC_NODE":"83.3343","MEAN_ELEMENT_THEORY":"SGP4","COUNTRY_CODE":"US","MEAN_MOTION_DDOT":"0.0000000000000","PERIAPSIS":"538.829","ARG_OF_PERICENTER":"82.0010","DECAY_DATE":null},{"SEMIMAJOR_AXIS":"6917.904","REF_FRAME":"TEME","MEAN_MOTION":"15.08832315","MEAN_ANOMALY":"245.0324","OBJECT_TYPE":"PAYLOAD","RCS_SIZE":"LARGE","NORAD_CAT_ID":"53937","APOAPSIS":"540.318","TLE_LINE2":"2 53937  53.2163  75.7789 0000794 115.0750 245.0324 15.08832315 42069","SITE":"AFETR","ECCENTRICITY":"0.00007940","CENTER_NAME":"EARTH","TLE_LINE1":"1 53937U 22119BD  23170.80495149  .00004314  00000-0  28902-3 0  9991","LAUNCH_DATE":"2022-09-24","EPOCH":"2023-06-19T19:19:07.808736","FILE":"3937509","ELEMENT_SET_NO":"999","REV_AT_EPOCH":"4206","INCLINATION":"53.2163","OBJECT_ID":"2022-119BD","MEAN_MOTION_DOT":"0.00004314","BSTAR":"0.00028902000000","GP_ID":"234319359","TIME_SYSTEM":"UTC","OBJECT_NAME":"STARLINK-4765","EPHEMERIS_TYPE":"0","COUNTRY_CODE":"US","MEAN_ELEMENT_THEORY":"SGP4","PERIOD":"95.438","RA_OF_ASC_NODE":"75.7789","CLASSIFICATION_TYPE":"U","MEAN_MOTION_DDOT":"0.0000000000000","PERIAPSIS":"539.220","ARG_OF_PERICENTER":"115.0750","DECAY_DATE":null},{"EPOCH":"2023-06-19T20:21:25.407936","FILE":"3937509","INCLINATION":"53.2166","REV_AT_EPOCH":"3928","ELEMENT_SET_NO":"999","OBJECT_ID":"2022-125A","MEAN_MOTION_DOT":"0.00004696","BSTAR":"0.00031281000000","TIME_SYSTEM":"UTC","OBJECT_NAME":"STARLINK-4633","GP_ID":"234320111","EPHEMERIS_TYPE":"0","COUNTRY_CODE":"US","MEAN_ELEMENT_THEORY":"SGP4","CLASSIFICATION_TYPE":"U","RA_OF_ASC_NODE":"5.8028","PERIOD":"95.437","PERIAPSIS":"539.023","MEAN_MOTION_DDOT":"0.0000000000000","DECAY_DATE":null,"ARG_OF_PERICENTER":"95.6489","SEMIMAJOR_AXIS":"6917.846","REF_FRAME":"TEME","MEAN_MOTION":"15.08851146","OBJECT_TYPE":"PAYLOAD","MEAN_ANOMALY":"264.4617","RCS_SIZE":"LARGE","NORAD_CAT_ID":"53964","APOAPSIS":"540.400","TLE_LINE2":"2 53964  53.2166   5.8028 0000995  95.6489 264.4617 15.08851146 39280","SITE":"AFWTR","CENTER_NAME":"EARTH","ECCENTRICITY":"0.00009950","LAUNCH_DATE":"2022-10-05","TLE_LINE1":"1 53964U 22125A   23170.84821074  .00004696  00000-0  31281-3 0  9999"},{"OBJECT_NAME":"STARLINK-4578","TIME_SYSTEM":"UTC","GP_ID":"234318860","EPHEMERIS_TYPE":"0","BSTAR":"0.00026671000000","OBJECT_ID":"2022-125B","MEAN_MOTION_DOT":"0.00003960","EPOCH":"2023-06-19T20:17:29.906592","FILE":"3937509","INCLINATION":"53.2166","REV_AT_EPOCH":"3928","ELEMENT_SET_NO":"999","PERIAPSIS":"538.923","MEAN_MOTION_DDOT":"0.0000000000000","DECAY_DATE":null,"ARG_OF_PERICENTER":"83.8614","RA_OF_ASC_NODE":"5.7843","CLASSIFICATION_TYPE":"U","PERIOD":"95.437","MEAN_ELEMENT_THEORY":"SGP4","COUNTRY_CODE":"US","NORAD_CAT_ID":"53965","RCS_SIZE":"LARGE","OBJECT_TYPE":"PAYLOAD","MEAN_ANOMALY":"276.2510","MEAN_MOTION":"15.08845288","SEMIMAJOR_AXIS":"6917.864","REF_FRAME":"TEME","ECCENTRICITY":"0.00011650","CENTER_NAME":"EARTH","TLE_LINE1":"1 53965U 22125B   23170.84548503  .00003960  00000-0  26671-3 0  9993","LAUNCH_DATE":"2022-10-05","SITE":"AFWTR","APOAPSIS":"540.535","TLE_LINE2":"2 53965  53.2166   5.7843 0001165  83.8614 276.2510 15.08845288 39287"},{"COUNTRY_CODE":"US","MEAN_ELEMENT_THEORY":"SGP4","RA_OF_ASC_NODE":"5.7568","CLASSIFICATION_TYPE":"U","PERIOD":"95.438","DECAY_DATE":null,"ARG_OF_PERICENTER":"96.6190","PERIAPSIS":"539.064","MEAN_MOTION_DDOT":"0.0000000000000","INCLINATION":"53.2174","REV_AT_EPOCH":"3928","ELEMENT_SET_NO":"999","EPOCH":"2023-06-19T20:10:49.084896","FILE":"3937509","MEAN_MOTION_DOT":"0.00002370","OBJECT_ID":"2022-125C","BSTAR":"0.00016696000000","EPHEMERIS_TYPE":"0","TIME_SYSTEM":"UTC","OBJECT_NAME":"STARLINK-4635","GP_ID":"234318608","TLE_LINE2":"2 53966  53.2174   5.7568 0001025  96.6190 263.4919 15.08830911 39285","APOAPSIS":"540.482","SITE":"AFWTR","TLE_LINE1":"1 53966U 22125C   23170.84084589  .00002370  00000-0  16696-3 0  9993","LAUNCH_DATE":"2022-10-05","ECCENTRICITY":"0.00010250","CENTER_NAME":"EARTH","SEMIMAJOR_AXIS":"6917.908","REF_FRAME":"TEME","MEAN_MOTION":"15.08830911","MEAN_ANOMALY":"263.4919","OBJECT_TYPE":"PAYLOAD","RCS_SIZE":"LARGE","NORAD_CAT_ID":"53966"},{"APOAPSIS":"540.392","TLE_LINE2":"2 53967  53.2164   5.7322 0000978  60.3834 299.7256 15.08849949 39289","CENTER_NAME":"EARTH","ECCENTRICITY":"0.00009780","TLE_LINE1":"1 53967U 22125D   23170.83715787  .00007703  00000-0  50140-3 0  9991","LAUNCH_DATE":"2022-10-05","SITE":"AFWTR","MEAN_MOTION":"15.08849949","SEMIMAJOR_AXIS":"6917.850","REF_FRAME":"TEME","RCS_SIZE":"LARGE","NORAD_CAT_ID":"53967","OBJECT_TYPE":"PAYLOAD","MEAN_ANOMALY":"299.7256","CLASSIFICATION_TYPE":"U","RA_OF_ASC_NODE":"5.7322","PERIOD":"95.437","COUNTRY_CODE":"US","MEAN_ELEMENT_THEORY":"SGP4","PERIAPSIS":"539.038","MEAN_MOTION_DDOT":"0.0000000000000","DECAY_DATE":null,"ARG_OF_PERICENTER":"60.3834","OBJECT_ID":"2022-125D","MEAN_MOTION_DOT":"0.00007703","EPOCH":"2023-06-19T20:05:30.439968","FILE":"3937509","INCLINATION":"53.2164","REV_AT_EPOCH":"3928","ELEMENT_SET_NO":"999","OBJECT_NAME":"STARLINK-4634","TIME_SYSTEM":"UTC","GP_ID":"234319361","EPHEMERIS_TYPE":"0","BSTAR":"0.00050140000000"},{"BSTAR":"0.00022327000000","GP_ID":"234319611","OBJECT_NAME":"STARLINK-4629","TIME_SYSTEM":"UTC","EPHEMERIS_TYPE":"0","EPOCH":"2023-06-19T19:49:35.374368","FILE":"3937509","REV_AT_EPOCH":"3928","ELEMENT_SET_NO":"999","INCLINATION":"53.2179","OBJECT_ID":"2022-125E","MEAN_MOTION_DOT":"0.00003267","MEAN_MOTION_DDOT":"0.0000000000000","PERIAPSIS":"539.125","ARG_OF_PERICENTER":"95.5232","DECAY_DATE":null,"MEAN_ELEMENT_THEORY":"SGP4","COUNTRY_CODE":"US","PERIOD":"95.438","RA_OF_ASC_NODE":"5.6650","CLASSIFICATION_TYPE":"U","MEAN_ANOMALY":"264.5864","OBJECT_TYPE":"PAYLOAD","RCS_SIZE":"LARGE","NORAD_CAT_ID":"53968","REF_FRAME":"TEME","SEMIMAJOR_AXIS":"6917.893","MEAN_MOTION":"15.08835989","SITE":"AFWTR","CENTER_NAME":"EARTH","ECCENTRICITY":"0.00009140","TLE_LINE1":"1 53968U 22125E   23170.82610387  .00003267  00000-0  22327-3 0  9998","LAUNCH_DATE":"2022-10-05","APOAPSIS":"540.390","TLE_LINE2":"2 53968  53.2179   5.6650 0000914  95.5232 264.5864 15.08835989 39285"},{"TLE_LINE2":"2 53969  53.2177   5.7105 0001020  95.0363 265.0746 15.08830357 39288","APOAPSIS":"540.480","LAUNCH_DATE":"2022-10-05","TLE_LINE1":"1 53969U 22125F   23170.83347349  .00001683  00000-0  12381-3 0  9994","CENTER_NAME":"EARTH","ECCENTRICITY":"0.00010200","SITE":"AFWTR","MEAN_MOTION":"15.08830357","REF_FRAME":"TEME","SEMIMAJOR_AXIS":"6917.910","NORAD_CAT_ID":"53969","RCS_SIZE":"LARGE","MEAN_ANOMALY":"265.0746","OBJECT_TYPE":"PAYLOAD","CLASSIFICATION_TYPE":"U","RA_OF_ASC_NODE":"5.7105","PERIOD":"95.438","COUNTRY_CODE":"US","MEAN_ELEMENT_THEORY":"SGP4","DECAY_DATE":null,"ARG_OF_PERICENTER":"95.0363","PERIAPSIS":"539.069","MEAN_MOTION_DDOT":"0.0000000000000","MEAN_MOTION_DOT":"0.00001683","OBJECT_ID":"2022-125F","INCLINATION":"53.2177","REV_AT_EPOCH":"3928","ELEMENT_SET_NO":"999","EPOCH":"2023-06-19T20:00:12.109536","FILE":"3937509","EPHEMERIS_TYPE":"0","OBJECT_NAME":"STARLINK-4468","TIME_SYSTEM":"UTC","GP_ID":"234318360","BSTAR":"0.00012381000000"},{"TLE_LINE2":"2 53970  53.2170   3.4236 0000904 115.0046 245.1040 15.08848190 39330","APOAPSIS":"540.346","SITE":"AFWTR","TLE_LINE1":"1 53970U 22125G   23170.23962053  .00011484  00000-0  73830-3 0  9991","LAUNCH_DATE":"2022-10-05","ECCENTRICITY":"0.00009040","CENTER_NAME":"EARTH","REF_FRAME":"TEME","SEMIMAJOR_AXIS":"6917.855","MEAN_MOTION":"15.08848190","OBJECT_TYPE":"PAYLOAD","MEAN_ANOMALY":"245.1040","NORAD_CAT_ID":"53970","RCS_SIZE":"LARGE","MEAN_ELEMENT_THEORY":"SGP4","COUNTRY_CODE":"US","PERIOD":"95.437","RA_OF_ASC_NODE":"3.4236","CLASSIFICATION_TYPE":"U","ARG_OF_PERICENTER":"115.0046","DECAY_DATE":null,"MEAN_MOTION_DDOT":"0.0000000000000","PERIAPSIS":"539.095","REV_AT_EPOCH":"3933","ELEMENT_SET_NO":"999","INCLINATION":"53.2170","FILE":"3937383","EPOCH":"2023-06-19T05:45:03.213792","MEAN_MOTION_DOT":"0.00011484","OBJECT_ID":"2022-125G","BSTAR":"0.00073830000000","EPHEMERIS_TYPE":"0","GP_ID":"234292656","TIME_SYSTEM":"UTC","OBJECT_NAME":"STARLINK-4567"},{"MEAN_ELEMENT_THEORY":"SGP4","COUNTRY_CODE":"US","PERIOD":"95.437","RA_OF_ASC_NODE":"5.6875","CLASSIFICATION_TYPE":"U","ARG_OF_PERICENTER":"86.7837","DECAY_DATE":null,"MEAN_MOTION_DDOT":"0.0000000000000","PERIAPSIS":"538.983","REV_AT_EPOCH":"3928","ELEMENT_SET_NO":"999","INCLINATION":"53.2169","FILE":"3937509","EPOCH":"2023-06-19T19:54:53.831808","MEAN_MOTION_DOT":"0.00004774","OBJECT_ID":"2022-125H","BSTAR":"0.00031782000000","EPHEMERIS_TYPE":"0","GP_ID":"234319862","TIME_SYSTEM":"UTC","OBJECT_NAME":"STARLINK-4639","TLE_LINE2":"2 53971  53.2169   5.6875 0001089  86.7837 273.3280 15.08842951 39281","APOAPSIS":"540.490","SITE":"AFWTR","TLE_LINE1":"1 53971U 22125H   23170.82978972  .00004774  00000-0  31782-3 0  9998","LAUNCH_DATE":"2022-10-05","CENTER_NAME":"EARTH","ECCENTRICITY":"0.00010890","REF_FRAME":"TEME","SEMIMAJOR_AXIS":"6917.871","MEAN_MOTION":"15.08842951","OBJECT_TYPE":"PAYLOAD","MEAN_ANOMALY":"273.3280","RCS_SIZE":"LARGE","NORAD_CAT_ID":"53971"}];
